STARLINK-2469           
1 48128U 21027AN  26068.38685403  .00022048  00000+0  10578-2 0  9992
2 48128  53.1065 102.3811 0001315  92.2024 267.9122 15.18828320273357
KONDOR-FKA NO. 2        
1 62138U 24223A   26068.49158135  .00005629  00000+0  26619-3 0  9999
2 62138  97.4353 273.3867 0001838  85.6363 274.5082 15.19776940 70565
