[{"OBJECT_NAME":"STARLINK-2469","OBJECT_ID":"2021-027AN","EPOCH":"2026-03-09T09:17:04.188192","MEAN_MOTION":15.1882832,"ECCENTRICITY":0.0001315,"INCLINATION":53.1065,"RA_OF_ASC_NODE":102.3811,"ARG_OF_PERICENTER":92.2024,"MEAN_ANOMALY":267.9122,"EPHEMERIS_TYPE":0,"CLASSIFICATION_TYPE":"U","NORAD_CAT_ID":48128,"ELEMENT_SET_NO":999,"REV_AT_EPOCH":27335,"BSTAR":0.0010578489,"MEAN_MOTION_DOT":0.00022048,"MEAN_MOTION_DDOT":0},{"OBJECT_NAME":"KONDOR-FKA NO. 2","OBJECT_ID":"2024-223A","EPOCH":"2026-03-09T11:47:52.628640","MEAN_MOTION":15.1977694,"ECCENTRICITY":0.00018388,"INCLINATION":97.4353,"RA_OF_ASC_NODE":273.3867,"ARG_OF_PERICENTER":85.6363,"MEAN_ANOMALY":274.5082,"EPHEMERIS_TYPE":0,"CLASSIFICATION_TYPE":"U","NORAD_CAT_ID":62138,"ELEMENT_SET_NO":999,"REV_AT_EPOCH":7056,"BSTAR":0.00026619271,"MEAN_MOTION_DOT":5.629e-5,"MEAN_MOTION_DDOT":0}]
